id,category,satellite_name,tle_line1,tle_line2,inclination,eccentricity,period,perigee,apogee,epoch,raan,arg_perigee,mean_anomaly,mean_motion,semi_major_axis,velocity,orbit_type,satellite_age,bstar,rev_num,norad_number,ephemeris_type,intl_designator
4335,active,GHGSAT-C5,1 52744U 22057N   25017.60627819  .00010794  00000+0  43185-3 0  9996,2 52744  97.6016 145.6916 0009322 132.8085 227.3937 15.25228228146706,97.6016,0.0009322,94.41210000999274,483.8346237272717,496.63976515258673,2025-01-17 14:33:02.435616,145.6916,132.8085,227.3937,15.25228228,6868.237194439929,7.6180925647174815,LEO,2,0.00043185,14670,52744,0,22057N
4334,active,CONNECTA T1.1,1 52739U 22057H   25017.31110005  .00034561  00000+0  87354-3 0  9996,2 52739  97.5962 149.9866 0006377 126.7298 233.4534 15.39701062146983,97.5962,0.0006377,93.52464809821636,442.7772040976379,451.4819743757507,2025-01-17 07:27:59.04432,149.98660000000004,126.7298,233.4534,15.39701062,6825.129589236694,7.642112681292644,LEO,2,0.00087354,14698,52739,0,22057H
4338,active,CARCARA 1 (ICEYE-X18),1 52749U 22057T   25017.52684085  .00181157  00000+0  19192-2 0  9992,2 52749  97.5693 153.3031 0003287  25.9096 334.2326 15.63528435147316,97.5693,0.0003287,92.09938033522238,375.3907085252149,379.8318473793406,2025-01-17 12:38:39.04944,153.3031,25.9096,334.2326,15.63528435,6755.611277952277,7.68133244909814,LEO,2,0.0019192,14731,52749,0,22057T
4339,active,NUSAT-31 (RUBY PAYNE-S),1 52752U 22057W   25017.51117934  .00044515  00000+0  10314-2 0  9992,2 52752  97.6022 154.7974 0005364  78.5327 281.6522 15.42287791147336,97.6022,0.0005364,93.36778832090229,435.83913307784314,443.15294282735977,2025-01-17 12:16:05.894976,154.7974,78.5327,281.6522,15.42287791,6817.496037952601,7.646389921649462,LEO,2,0.0010314,14733,52752,0,22057W
4341,active,HAWK-5B,1 52756U 22057AA  25017.31175594  .00016199  00000+0  53313-3 0  9994,2 52756  97.5964 147.6239 0008379 112.2534 247.9596 15.31557690146896,97.5964,0.0008379,94.02192352284165,465.56221726355125,477.0402762929025,2025-01-17 07:28:55.713216,147.6239,112.2534,247.9596,15.3155769,6849.301246778226,7.628615991132607,LEO,2,0.00053313,14689,52756,0,22057AA
4342,active,HAWK-5A,1 52757U 22057AB  25017.31153949  .00016518  00000+0  54349-3 0  9990,2 52757  97.5968 148.4043 0008741 114.1243 246.0912 15.31557328146894,97.5968,0.0008741,94.02194574593162,465.3153508855221,477.28930121192116,2025-01-17 07:28:37.011936,148.4043,114.1243,246.0912,15.31557328,6849.302326048722,7.628615390097634,LEO,2,0.00054349,14689,52757,0,22057AB
4345,active,VIGORIDE-3,1 52760U 22057AE  25017.35581371  .00006589  00000+0  29980-3 0  9992,2 52760  97.5951 143.5531 0011162 123.0600 237.1708 15.21004541146599,97.5951,0.0011162,94.6742735595817,495.2657718824803,510.62679636716075,2025-01-17 08:32:22.304544,143.5531,123.06,237.1708,15.21004541,6880.9462841248205,7.611054014706591,LEO,2,0.0002998,14659,52760,0,22057AE
4346,active,ION SCV-006,1 52761U 22057AF  25017.29749060  .00014985  00000+0  50032-3 0  9998,2 52761  97.5466 144.1247 0024546 159.1939 201.0307 15.30846851146815,97.5466,0.0024546,94.06558200510678,456.6038701470725,490.23886793196107,2025-01-17 07:08:23.18784,144.1247,159.1939,201.0307,15.30846851,6851.421369039516,7.627435590080877,LEO,2,0.00050032,14681,52761,0,22057AF
4347,active,ICEYE-X17,1 52762U 22057AG  25017.56601107  .00067955  00000+0  14370-2 0  9997,2 52762  97.5771 153.2938 0009254  87.0132 273.2175 15.44868896147280,97.5771,0.0009254,93.21179316435665,425.59844078293736,438.20220429989786,2025-01-17 13:35:03.356448,153.29380000000003,87.0132,273.2175,15.44868896,6809.900322541417,7.650653098244705,LEO,2,0.001437,14728,52762,0,22057AG
4350,active,ARMSAT1 URDANETA,1 52765U 22057AK  25017.40160224  .00028110  00000+0  55343-3 0  9999,2 52765  97.5970 157.9777 0007632  78.9388 281.2719 15.47180613147501,97.597,0.0007632,93.0725209390922,419.9231614412083,430.30743663365774,2025-01-17 09:38:18.433536,157.9777,78.9388,281.2719,15.47180613,6803.115299037433,7.654467301172901,LEO,2,0.0005534299999999999,14750,52765,0,22057AK
4351,active,VARISAT 1C & CELESTIS-21,1 52766U 22057AL  25017.31958029  .00059519  00000+0  94753-3 0  9993,2 52766  97.5972 157.0593 0005623  80.7255 279.4633 15.53069405147420,97.5972,0.0005623,92.71961673857068,404.09172769710676,411.7231592080125,2025-01-17 07:40:11.737056,157.0593,80.7255,279.4633,15.53069405,6785.90744345256,7.664166340836662,LEO,2,0.00094753,14742,52766,0,22057AL
4353,active,OMNI-L2,1 52771U 22057AR  25017.59619669 -.00002001  00000+0 -25040-3 0  9992,2 52771  97.5214 108.6371 0006149 199.4014 160.6967 14.81298325144115,97.5214,0.0006149,97.21201838259016,621.0595775598995,629.6723170018649,2025-01-17 14:18:31.394016,108.6371,199.4014,160.6967,14.81298325,7003.365947280882,7.544239685737898,LEO,2,-0.0002504,14411,52771,0,22057AR
4355,active,GEESAT-1 01,1 52785U 22058A   25017.61023505  .00007711  00000+0  73909-3 0  9997,2 52785  49.9938 104.2785 0006616 342.6597  17.4119 14.93893638142940,49.9938,0.0006616,96.39240461107046,581.33856755347,590.5532607871,2025-01-17 14:38:44.30832,104.2785,342.6597,17.4119,14.93893638,6963.9459141702855,7.565561972864342,LEO,2,0.0007390900000000001,14294,52785,0,22058A
4356,active,GEESAT-1 02,1 52786U 22058B   25017.43882061  .00007923  00000+0  75889-3 0  9992,2 52786  49.9997 105.2056 0003304 334.6885  25.3895 14.93897340142910,49.9997,0.0003304,96.39216574279462,583.6335254176756,588.2352932753711,2025-01-17 10:31:54.100704,105.2056,334.6885,25.3895,14.9389734,6963.934409346523,7.565568222235465,LEO,2,0.00075889,14291,52786,0,22058B
4358,active,GEESAT-1 04,1 52788U 22058D   25017.28270034  .00007321  00000+0  70344-3 0  9991,2 52788  50.0041 106.0963 0002802 323.8141  36.2611 14.93875004142884,50.0041,0.0002802,96.393606971417,584.0525104978069,587.9551382409836,2025-01-17 06:47:05.309376,106.0963,323.8141,36.2611,14.93875004,6964.003824369395,7.565530516526716,LEO,2,0.00070344,14288,52788,0,22058D
4360,active,GEESAT-1 06,1 52790U 22058F   25017.58032207  .00008377  00000+0  80070-3 0  9994,2 52790  50.0054 104.4181 0005999 307.8043  52.2356 14.93905325142938,50.0054,0.0005999,96.39165052176249,581.7319449029001,590.0872436341042,2025-01-17 13:55:39.826848,104.4181,307.8043,52.2356,14.93905325,6963.909594268502,7.565581701732573,LEO,2,0.0008007,14293,52790,0,22058F
4362,active,GEESAT-1 08,1 52792U 22058H   25017.49077136  .00007675  00000+0  73598-3 0  9993,2 52792  49.9930 103.4474 0005338 355.1220   4.9670 14.93885363142936,49.99300000000001,0.0005338,96.39293855240751,582.2542627676376,589.6889988807052,2025-01-17 11:46:42.645504,103.4474,355.122,4.967,14.93885363,6963.971630824171,7.5655480037438005,LEO,2,0.00073598,14293,52792,0,22058H
4363,active,GEESAT-1 09,1 52793U 22058J   25017.58801922  .00008176  00000+0  78167-3 0  9996,2 52793  49.9981 103.7973 0009094 307.8331  52.1788 14.93913188142976,49.9981,0.0009094,96.39114317799303,579.5522013841473,592.2181157105133,2025-01-17 14:06:44.860608,103.7973,307.83310000000006,52.1788,14.93913188,6963.88515854733,7.56559497523426,LEO,2,0.00078167,14297,52793,0,22058J
6995,active,STARLINK-6351,1 57240U 23094Y   25017.32247555  .00000229  00000+0  32059-4 0  9999,2 57240  43.0031 120.0804 0002114 281.7572  78.3033 15.02538924 84630,43.0031,0.0002114,95.83778343435448,557.7410076488814,560.6740589939691,2025-01-17 07:44:21.88752,120.08039999999998,281.7572,15.02538924,15.02538924,6937.207533321425,7.580128088013228,LEO,2,3.2059e-05,8463,57240,0,23094Y
4371,active,STARLINK-4043,1 52836U 22062G   25017.53161629  .00000900  00000+0  74658-4 0  9996,2 52836  53.2175 102.6442 0001272  89.0449 271.0689 15.08834470142958,53.2175,0.0001272,95.43790446409936,539.0173354778753,540.777248548964,2025-01-17 12:45:31.647456,102.6442,89.0449,271.0689,15.0883447,6917.897292013419,7.5907000937464435,LEO,2,7.4658e-05,14295,52836,0,22062G
4376,active,STARLINK-4065,1 52841U 22062M   25017.54166230  .00003057  00000+0  21011-3 0  9996,2 52841  53.2173 102.2798 0001293  86.4327 273.6813 15.08829779142965,53.2173,0.0001293,95.43820118359422,539.0171446746481,540.8061166223342,2025-01-17 12:59:59.62272,102.2798,86.4327,273.6813,15.08829779,6917.911630648491,7.59069222718636,LEO,2,0.00021011,14296,52841,0,22062M
4379,active,STARLINK-4208,1 52844U 22062Q   25017.54901743  .00000802  00000+0  68503-4 0  9998,2 52844  53.2169 102.2459 0001392  80.7117 279.4032 15.08840534142960,53.2169,0.0001392,95.43752090106561,538.915788017277,540.8417254631531,2025-01-17 13:10:35.105952,102.2459,80.7117,279.4032,15.08840534,6917.878756740215,7.590710262731096,LEO,2,6.8503e-05,14296,52844,0,22062Q
4375,active,STARLINK-4049,1 52840U 22062L   25017.23622865 -.00000586  00000+0 -18708-4 0  9998,2 52840  53.2170 103.7654 0001362 100.7381 259.3764 15.08841472142910,53.217,0.0001362,95.43746157051548,538.9336749564736,540.8181043488148,2025-01-17 05:40:10.15536,103.7654,100.7381,259.3764,15.08841472,6917.875889652644,7.590711835701553,LEO,2,-1.8708e-05,14291,52840,0,22062L
4380,active,STARLINK-4168,1 52845U 22062R   25017.60422267  .00000762  00000+0  65956-4 0  9999,2 52845  53.2183 102.0669 0001750 122.9284 237.1877 15.08844320142976,53.2183,0.000175,95.43728142874275,538.6565577265656,541.0778112411363,2025-01-17 14:30:04.838688,102.0669,122.9284,237.1877,15.0884432,6917.867184483851,7.590716611624914,LEO,2,6.5956e-05,14297,52845,0,22062R
4382,active,STARLINK-4206,1 52847U 22062T   25017.26197887  .00000710  00000+0  62717-4 0  9995,2 52847  53.2172 103.5359 0001200  82.3678 277.7451 15.08835763142928,53.2172,0.00012,95.43782267838516,539.0631926075948,540.7234870091479,2025-01-17 06:17:14.974368,103.5359,82.3678,277.7451,15.08835763,6917.893339808372,7.590702262036519,LEO,2,6.2717e-05,14292,52847,0,22062T
